start=new Date('2022-07-21T00:00:00.000Z').valueOf();
sats=[{"RA_OF_ASC_NODE":"77.6211","OBJECT_NAME":"STARLINK-1480","APOAPSIS":"548.168","NORAD_CAT_ID":"45741","EPHEMERIS_TYPE":"0","FILE":"3518201","MEAN_ELEMENT_THEORY":"SGP4","MEAN_ANOMALY":"278.2831","ELEMENT_SET_NO":"999","MEAN_MOTION_DDOT":"0.0000000000000","REF_FRAME":"TEME","TIME_SYSTEM":"UTC","DECAY_DATE":null,"MEAN_MOTION":"15.06398303","TLE_LINE2":"2 45741  53.0543  77.6211 0001370  81.8314 278.2831 15.06398303117179","CENTER_NAME":"EARTH","GP_ID":"208508875","LAUNCH_DATE":"2020-06-13","SEMIMAJOR_AXIS":"6925.354","RCS_SIZE":"LARGE","ARG_OF_PERICENTER":"81.8314","MEAN_MOTION_DOT":"0.00001572","OBJECT_TYPE":"PAYLOAD","PERIAPSIS":"546.270","BSTAR":"0.00012439000000","TLE_LINE1":"1 45741U 20038M   22201.82964541  .00001572  00000-0  12439-3 0  9997","SITE":"AFETR","CLASSIFICATION_TYPE":"U","REV_AT_EPOCH":"11717","ECCENTRICITY":"0.00013700","PERIOD":"95.592","EPOCH":"2022-07-20T19:54:41.363424","OBJECT_ID":"2020-038M","COUNTRY_CODE":"US","INCLINATION":"53.0543"},{"ECCENTRICITY":"0.00015350","PERIOD":"95.592","OBJECT_ID":"2020-038N","EPOCH":"2022-07-20T19:44:04.445088","TLE_LINE1":"1 45742U 20038N   22201.82227367  .00001106  00000-0  93147-4 0  9995","SITE":"AFETR","CLASSIFICATION_TYPE":"U","REV_AT_EPOCH":"11604","COUNTRY_CODE":"US","INCLINATION":"53.0558","LAUNCH_DATE":"2020-06-13","SEMIMAJOR_AXIS":"6925.360","ARG_OF_PERICENTER":"73.7828","OBJECT_TYPE":"PAYLOAD","MEAN_MOTION_DOT":"0.00001106","PERIAPSIS":"546.162","BSTAR":"0.00009314700000","RCS_SIZE":"LARGE","MEAN_MOTION_DDOT":"0.0000000000000","REF_FRAME":"TEME","TIME_SYSTEM":"UTC","MEAN_MOTION":"15.06396161","DECAY_DATE":null,"TLE_LINE2":"2 45742  53.0558  77.6398 0001535  73.7828 286.3330 15.06396161116044","CENTER_NAME":"EARTH","GP_ID":"208532683","APOAPSIS":"548.288","RA_OF_ASC_NODE":"77.6398","OBJECT_NAME":"STARLINK-1481","FILE":"3518363","MEAN_ELEMENT_THEORY":"SGP4","ELEMENT_SET_NO":"999","MEAN_ANOMALY":"286.3330","NORAD_CAT_ID":"45742","EPHEMERIS_TYPE":"0"},{"APOAPSIS":"548.472","RA_OF_ASC_NODE":"77.5029","OBJECT_NAME":"STARLINK-1483","FILE":"3518363","ELEMENT_SET_NO":"999","MEAN_ANOMALY":"302.9611","MEAN_ELEMENT_THEORY":"SGP4","NORAD_CAT_ID":"45743","EPHEMERIS_TYPE":"0","TIME_SYSTEM":"UTC","REF_FRAME":"TEME","MEAN_MOTION_DDOT":"0.0000000000000","DECAY_DATE":null,"MEAN_MOTION":"15.06410364","TLE_LINE2":"2 45743  53.0556  77.5029 0001863  57.1557 302.9611 15.06410364116052","CENTER_NAME":"EARTH","GP_ID":"208532433","SEMIMAJOR_AXIS":"6925.317","LAUNCH_DATE":"2020-06-13","ARG_OF_PERICENTER":"57.1557","PERIAPSIS":"545.892","OBJECT_TYPE":"PAYLOAD","BSTAR":"0.00022904000000","MEAN_MOTION_DOT":"0.00003132","RCS_SIZE":"LARGE","ECCENTRICITY":"0.00018630","PERIOD":"95.591","EPOCH":"2022-07-20T20:09:13.784832","OBJECT_ID":"2020-038P","SITE":"AFETR","CLASSIFICATION_TYPE":"U","TLE_LINE1":"1 45743U 20038P   22201.83974288  .00003132  00000-0  22904-3 0  9991","REV_AT_EPOCH":"11605","COUNTRY_CODE":"US","INCLINATION":"53.0556"},{"GP_ID":"208531182","TLE_LINE2":"2 45744  53.0565  77.3936 0001268  96.3203 263.7931 15.06393185116061","CENTER_NAME":"EARTH","MEAN_MOTION":"15.06393185","DECAY_DATE":null,"MEAN_MOTION_DDOT":"0.0000000000000","REF_FRAME":"TEME","TIME_SYSTEM":"UTC","EPHEMERIS_TYPE":"0","NORAD_CAT_ID":"45744","MEAN_ELEMENT_THEORY":"SGP4","MEAN_ANOMALY":"263.7931","ELEMENT_SET_NO":"999","FILE":"3518363","OBJECT_NAME":"STARLINK-1500","RA_OF_ASC_NODE":"77.3936","APOAPSIS":"548.113","INCLINATION":"53.0565","COUNTRY_CODE":"US","REV_AT_EPOCH":"11606","TLE_LINE1":"1 45744U 20038Q   22201.87756176  .00001535  00000-0  12196-3 0  9997","CLASSIFICATION_TYPE":"U","SITE":"AFETR","OBJECT_ID":"2020-038Q","EPOCH":"2022-07-20T21:03:41.336064","ECCENTRICITY":"0.00012680","PERIOD":"95.593","RCS_SIZE":"LARGE","BSTAR":"0.00012196000000","OBJECT_TYPE":"PAYLOAD","PERIAPSIS":"546.356","MEAN_MOTION_DOT":"0.00001535","ARG_OF_PERICENTER":"96.3203","LAUNCH_DATE":"2020-06-13","SEMIMAJOR_AXIS":"6925.369"},{"EPHEMERIS_TYPE":"0","NORAD_CAT_ID":"45745","ELEMENT_SET_NO":"999","MEAN_ANOMALY":"276.1492","MEAN_ELEMENT_THEORY":"SGP4","FILE":"3518363","OBJECT_NAME":"STARLINK-1503","RA_OF_ASC_NODE":"77.4423","APOAPSIS":"548.186","GP_ID":"208531933","CENTER_NAME":"EARTH","TLE_LINE2":"2 45745  53.0558  77.4423 0001401  83.9656 276.1492 15.06399170116058","MEAN_MOTION":"15.06399170","DECAY_DATE":null,"TIME_SYSTEM":"UTC","REF_FRAME":"TEME","MEAN_MOTION_DDOT":"0.0000000000000","RCS_SIZE":"LARGE","PERIAPSIS":"546.246","OBJECT_TYPE":"PAYLOAD","MEAN_MOTION_DOT":"0.00000564","BSTAR":"0.00005675100000","ARG_OF_PERICENTER":"83.9656","SEMIMAJOR_AXIS":"6925.351","LAUNCH_DATE":"2020-06-13","INCLINATION":"53.0558","COUNTRY_CODE":"US","REV_AT_EPOCH":"11605","SITE":"AFETR","CLASSIFICATION_TYPE":"U","TLE_LINE1":"1 45745U 20038R   22201.86650468  .00000564  00000-0  56751-4 0  9991","EPOCH":"2022-07-20T20:47:46.004352","OBJECT_ID":"2020-038R","ECCENTRICITY":"0.00014010","PERIOD":"95.592"},{"APOAPSIS":"548.136","RA_OF_ASC_NODE":"77.3856","OBJECT_NAME":"STARLINK-1504","FILE":"3518363","ELEMENT_SET_NO":"999","MEAN_ANOMALY":"278.6562","MEAN_ELEMENT_THEORY":"SGP4","NORAD_CAT_ID":"45746","EPHEMERIS_TYPE":"0","REF_FRAME":"TEME","TIME_SYSTEM":"UTC","MEAN_MOTION_DDOT":"0.0000000000000","DECAY_DATE":null,"MEAN_MOTION":"15.06404016","TLE_LINE2":"2 45746  53.0553  77.3856 0001350  81.4580 278.6562 15.06404016116056","CENTER_NAME":"EARTH","GP_ID":"208532183","SEMIMAJOR_AXIS":"6925.336","LAUNCH_DATE":"2020-06-13","ARG_OF_PERICENTER":"81.4580","OBJECT_TYPE":"PAYLOAD","MEAN_MOTION_DOT":"0.00000252","PERIAPSIS":"546.266","BSTAR":"0.00003579800000","RCS_SIZE":"LARGE","PERIOD":"95.592","ECCENTRICITY":"0.00013500","EPOCH":"2022-07-20T21:08:59.961984","OBJECT_ID":"2020-038S","CLASSIFICATION_TYPE":"U","SITE":"AFETR","TLE_LINE1":"1 45746U 20038S   22201.88124956  .00000252  00000-0  35798-4 0  9994","REV_AT_EPOCH":"11605","COUNTRY_CODE":"US","INCLINATION":"53.0553"},{"APOAPSIS":"548.238","RA_OF_ASC_NODE":"77.6682","OBJECT_NAME":"STARLINK-1506","FILE":"3518363","ELEMENT_SET_NO":"999","MEAN_ANOMALY":"295.3777","MEAN_ELEMENT_THEORY":"SGP4","NORAD_CAT_ID":"45747","EPHEMERIS_TYPE":"0","TIME_SYSTEM":"UTC","REF_FRAME":"TEME","MEAN_MOTION_DDOT":"0.0000000000000","DECAY_DATE":null,"MEAN_MOTION":"15.06407273","TLE_LINE2":"2 45747  53.0549  77.6682 0001512  64.7368 295.3777 15.06407273116052","CENTER_NAME":"EARTH","GP_ID":"208532934","SEMIMAJOR_AXIS":"6925.326","LAUNCH_DATE":"2020-06-13","ARG_OF_PERICENTER":"64.7368","BSTAR":"0.00013289000000","OBJECT_TYPE":"PAYLOAD","PERIAPSIS":"546.144","MEAN_MOTION_DOT":"0.00001699","RCS_SIZE":"LARGE","ECCENTRICITY":"0.00015120","PERIOD":"95.592","OBJECT_ID":"2020-038T","EPOCH":"2022-07-20T19:38:45.640320","SITE":"AFETR","CLASSIFICATION_TYPE":"U","TLE_LINE1":"1 45747U 20038T   22201.81858380  .00001699  00000-0  13289-3 0  9999","REV_AT_EPOCH":"11605","COUNTRY_CODE":"US","INCLINATION":"53.0549"},{"EPOCH":"2022-07-20T20:57:01.531296","OBJECT_ID":"2020-038U","ECCENTRICITY":"0.00014530","PERIOD":"95.592","REV_AT_EPOCH":"11605","CLASSIFICATION_TYPE":"U","SITE":"AFETR","TLE_LINE1":"1 45748U 20038U   22201.87293439  .00001088  00000-0  91936-4 0  9992","INCLINATION":"53.0542","COUNTRY_CODE":"US","SEMIMAJOR_AXIS":"6925.342","LAUNCH_DATE":"2020-06-13","PERIAPSIS":"546.201","OBJECT_TYPE":"PAYLOAD","MEAN_MOTION_DOT":"0.00001088","BSTAR":"0.00009193600000","ARG_OF_PERICENTER":"76.2707","RCS_SIZE":"LARGE","DECAY_DATE":null,"MEAN_MOTION":"15.06402046","TIME_SYSTEM":"UTC","REF_FRAME":"TEME","MEAN_MOTION_DDOT":"0.0000000000000","GP_ID":"208531683","TLE_LINE2":"2 45748  53.0542  77.4096 0001453  76.2707 283.8444 15.06402046116058","CENTER_NAME":"EARTH","APOAPSIS":"548.214","OBJECT_NAME":"STARLINK-1507","RA_OF_ASC_NODE":"77.4096","MEAN_ANOMALY":"283.8444","ELEMENT_SET_NO":"999","MEAN_ELEMENT_THEORY":"SGP4","FILE":"3518363","EPHEMERIS_TYPE":"0","NORAD_CAT_ID":"45748"},{"LAUNCH_DATE":"2020-06-13","SEMIMAJOR_AXIS":"6925.332","RCS_SIZE":"LARGE","ARG_OF_PERICENTER":"60.4203","MEAN_MOTION_DOT":"-0.00000095","OBJECT_TYPE":"PAYLOAD","PERIAPSIS":"546.201","BSTAR":"0.00001253900000","TLE_LINE1":"1 45750U 20038W   22201.83517086 -.00000095  00000-0  12539-4 0  9998","CLASSIFICATION_TYPE":"U","SITE":"AFETR","REV_AT_EPOCH":"11745","PERIOD":"95.592","ECCENTRICITY":"0.00014380","EPOCH":"2022-07-20T20:02:38.762304","OBJECT_ID":"2020-038W","COUNTRY_CODE":"US","INCLINATION":"53.0553","RA_OF_ASC_NODE":"57.5917","OBJECT_NAME":"STARLINK-1391","APOAPSIS":"548.193","NORAD_CAT_ID":"45750","EPHEMERIS_TYPE":"0","FILE":"3518199","MEAN_ELEMENT_THEORY":"SGP4","ELEMENT_SET_NO":"999","MEAN_ANOMALY":"299.6929","MEAN_MOTION_DDOT":"0.0000000000000","TIME_SYSTEM":"UTC","REF_FRAME":"TEME","DECAY_DATE":null,"MEAN_MOTION":"15.06405489","CENTER_NAME":"EARTH","TLE_LINE2":"2 45750  53.0553  57.5917 0001438  60.4203 299.6929 15.06405489117455","GP_ID":"208508831"},{"RCS_SIZE":"LARGE","ARG_OF_PERICENTER":"72.9673","MEAN_MOTION_DOT":"0.00001695","OBJECT_TYPE":"PAYLOAD","PERIAPSIS":"546.140","BSTAR":"0.00013269000000","LAUNCH_DATE":"2020-06-13","SEMIMAJOR_AXIS":"6925.362","COUNTRY_CODE":"US","INCLINATION":"53.0548","TLE_LINE1":"1 45751U 20038X   22201.83149088  .00001695  00000-0  13269-3 0  9998","CLASSIFICATION_TYPE":"U","SITE":"AFETR","REV_AT_EPOCH":"11745","PERIOD":"95.592","ECCENTRICITY":"0.00015710","OBJECT_ID":"2020-038X","EPOCH":"2022-07-20T19:57:20.812032","NORAD_CAT_ID":"45751","EPHEMERIS_TYPE":"0","FILE":"3518204","MEAN_ELEMENT_THEORY":"SGP4","MEAN_ANOMALY":"287.1488","ELEMENT_SET_NO":"999","RA_OF_ASC_NODE":"57.6204","OBJECT_NAME":"STARLINK-1464","APOAPSIS":"548.315","TLE_LINE2":"2 45751  53.0548  57.6204 0001571  72.9673 287.1488 15.06395456117451","CENTER_NAME":"EARTH","GP_ID":"208508844","MEAN_MOTION_DDOT":"0.0000000000000","TIME_SYSTEM":"UTC","REF_FRAME":"TEME","MEAN_MOTION":"15.06395456","DECAY_DATE":null}];
